OBJECT_NAME,OBJECT_ID,EPOCH,MEAN_MOTION,ECCENTRICITY,INCLINATION,RA_OF_ASC_NODE,ARG_OF_PERICENTER,MEAN_ANOMALY,EPHEMERIS_TYPE,CLASSIFICATION_TYPE,NORAD_CAT_ID,ELEMENT_SET_NO,REV_AT_EPOCH,BSTAR,MEAN_MOTION_DOT,MEAN_MOTION_DDOT
SIRION PATHFINDER-2,2018-099B,2026-05-20T13:30:21.471264,15.14264907,.00097029,97.4267,190.2795,44.9718,315.2298,0,U,43759,999,40844,.19530541E-3,.3511E-4,0
CORVUS BC4,2018-099K,2026-05-21T01:28:26.784768,15.12244706,.00100944,97.4085,184.8380,95.5086,264.7297,0,U,43767,999,40830,.18896732E-3,.3207E-4,0
M2 PATHFINDER,2020-037E,2026-05-21T01:06:32.409216,15.04540627,.00100235,97.8157,331.9749,240.6823,119.3401,0,U,45727,999,32141,.73121284E-4,.961E-5,0
NETSAT-4,2020-068U,2026-05-20T23:00:53.047584,15.42862153,.00073029,97.8616,147.0338,69.3171,290.8858,0,U,46504,999,31157,.27705354E-3,.12073E-3,0
NETSAT-3,2020-068V,2026-05-21T00:12:45.561024,15.41639965,.00073663,97.8666,145.3392,82.1229,278.0853,0,U,46505,999,31149,.30030796E-3,.1257E-3,0
NETSAT-1,2020-068W,2026-05-20T22:32:28.032576,15.33902178,.00069817,97.8754,139.9109,102.0976,258.1048,0,U,46506,999,31112,.28410244E-3,.9237E-4,0
NETSAT-2,2020-068X,2026-05-20T23:15:52.540704,15.44717509,.00062452,97.8632,146.8461,92.4201,267.7761,0,U,46507,999,31153,.33398991E-3,.1552E-3,0
GREENCUBE (IO-117),2022-080E,2026-05-20T11:32:39.901632,6.42583336,.00088379,70.1431,307.8842,296.2012,63.7739,0,U,53109,999,9028,0,-.3E-7,0
SITRO-AIS 5 (KATYS),2023-091L,2026-05-21T05:45:16.910784,15.28756295,.00115346,97.5068,204.8950,189.5188,170.5835,0,U,57176,999,16022,.30798464E-3,.855E-4,0
SITRO-AIS 6 (CHIRKIN),2023-091AC,2026-05-21T05:21:24.557760,15.25355118,.00116618,97.5076,204.1377,192.9246,167.1695,0,U,57192,999,16017,.26263929E-3,.6562E-4,0
SITRO-AIS 8 (ANOKHIN),2023-091AD,2026-05-21T05:42:02.045952,15.31313489,.00108449,97.5064,206.3746,184.9958,175.1177,0,U,57193,999,16032,.33410845E-3,.10045E-3,0
SITRO-AIS 7 (FARTUSHNIY),2023-091AE,2026-05-21T06:52:38.877312,15.25057562,.00114778,97.5074,204.0400,193.7275,166.3653,0,U,57194,999,16017,.26417726E-3,.6542E-4,0
SITRO-AIS 10 (BURDAEV),2023-091AK,2026-05-21T05:59:26.571840,15.37472173,.00077625,97.5086,211.1698,159.2191,200.9371,0,U,57199,999,16062,.37744775E-3,.13808E-3,0
SITRO-AIS 9 (SHCHUKIN),2023-091AM,2026-05-21T06:25:34.543488,15.37015380,.0007956,97.5084,210.9388,159.5263,200.6302,0,U,57201,999,16061,.38167186E-3,.13759E-3,0
SITRO-AIS 12 (SMIRENNIY),2023-091AQ,2026-05-21T06:19:19.331616,15.37301905,.00077285,97.5096,211.3848,154.2337,205.9294,0,U,57204,999,16063,.38441422E-3,.13987E-3,0
SITRO-AIS 11 (SHEFFER),2023-091AU,2026-05-21T06:49:01.825824,15.37699056,.00076428,97.5095,211.6360,154.0348,206.1282,0,U,57208,999,16065,.37197004E-3,.13706E-3,0
SITRO-AIS 25,2024-039R,2026-05-21T07:22:11.313696,14.93313915,.01471222,95.3915,216.6233,62.5763,299.0339,0,U,59066,999,12071,.22366186E-3,.2866E-4,0
SITRO-AIS 26,2024-039S,2026-05-21T07:18:56.140416,14.93114962,.01474446,95.3916,216.5249,63.1105,298.5102,0,U,59067,999,12070,.22213019E-3,.2834E-4,0
SITRO-AIS 27,2024-039T,2026-05-21T06:46:52.582656,14.93525584,.01464376,95.3915,216.7690,61.9052,299.6888,0,U,59068,999,12072,.26622672E-3,.3432E-4,0
SITRO-AIS 28,2024-039U,2026-05-21T06:15:16.551936,14.93560312,.01462289,95.3915,216.7997,61.7912,299.7992,0,U,59071,999,12072,.24717365E-3,.3185E-4,0
GRBBETA,2024-128C,2026-05-20T22:34:29.329536,15.06387472,.00443956,61.9903,311.8442,129.0524,231.4532,0,U,60237,999,10216,.21532655E-3,.3036E-4,0
OOV-CUBE (TUBSAT-30),2024-128F,2026-05-21T00:56:39.498720,15.02616790,.00480568,61.9943,320.2264,127.8545,232.6909,0,U,60240,999,10203,.13410325E-3,.1622E-4,0
ROBUSTA-3A (MEDITERRANEE),2024-128J,2026-05-20T21:04:51.405600,15.11195263,.00452481,61.9870,304.7859,122.7731,237.7736,0,U,60243,999,10229,.35523043E-3,.5917E-4,0
LASARSAT,2024-247Q,2026-05-20T19:53:01.858272,15.44503182,.00058604,44.9760,55.7382,176.3157,183.7776,0,U,62391,999,7908,.47395813E-3,.22182E-3,0
CROCUBE,2024-247T,2026-05-21T02:46:59.164320,15.46151390,.00055815,44.9732,51.8723,180.8555,179.2327,0,U,62394,999,7915,.48363113E-3,.23976E-3,0
FORESAIL-1 PRIME,2025-276DS,2026-05-21T04:16:03.853632,15.18419941,.00025838,97.4202,214.9476,162.6215,197.5108,0,U,66778,999,2630,.15412482E-3,.3104E-4,0
KNACKSAT-2,1998-067XZ,2026-05-21T00:54:37.110528,15.57383266,.0012161,51.6301,70.7726,99.9810,260.2555,0,U,67683,999,1604,.42652432E-3,.31564E-3,0
