SIRION PATHFINDER-2     
1 43759U 18099B   26140.56274851  .00003511  00000+0  19531-3 0  9997
2 43759  97.4267 190.2795 0009702  44.9718 315.2298 15.14264907408448
CORVUS BC4              
1 43767U 18099K   26141.06142112  .00003207  00000+0  18897-3 0  9992
2 43767  97.4085 184.8380 0010094  95.5086 264.7297 15.12244706408305
M2 PATHFINDER           
1 45727U 20037E   26141.04620844  .00000961  00000+0  73121-4 0  9992
2 45727  97.8157 331.9749 0010023 240.6823 119.3401 15.04540627321415
NETSAT-4                
1 46504U 20068U   26140.95894731  .00012073  00000+0  27705-3 0  9990
2 46504  97.8616 147.0338 0007302  69.3171 290.8858 15.42862153311577
NETSAT-3                
1 46505U 20068V   26141.00886066  .00012570  00000+0  30031-3 0  9998
2 46505  97.8666 145.3392 0007366  82.1229 278.0853 15.41639965311497
NETSAT-1                
1 46506U 20068W   26140.93921334  .00009237  00000+0  28410-3 0  9992
2 46506  97.8754 139.9109 0006981 102.0976 258.1048 15.33902178311129
NETSAT-2                
1 46507U 20068X   26140.96935811  .00015520  00000+0  33399-3 0  9995
2 46507  97.8632 146.8461 0006245  92.4201 267.7761 15.44717509311536
GREENCUBE (IO-117)      
1 53109U 22080E   26140.48101738 -.00000003  00000+0  00000+0 0  9997
2 53109  70.1431 307.8842 0008837 296.2012  63.7739  6.42583336 90280
SITRO-AIS 5 (KATYS)     
1 57176U 23091L   26141.23977906  .00008550  00000+0  30798-3 0  9995
2 57176  97.5068 204.8950 0011534 189.5188 170.5835 15.28756295160225
SITRO-AIS 6 (CHIRKIN)   
1 57192U 23091AC  26141.22320090  .00006562  00000+0  26264-3 0  9992
2 57192  97.5076 204.1377 0011661 192.9246 167.1695 15.25355118160178
SITRO-AIS 8 (ANOKHIN)   
1 57193U 23091AD  26141.23752368  .00010045  00000+0  33411-3 0  9994
2 57193  97.5064 206.3746 0010844 184.9958 175.1177 15.31313489160326
SITRO-AIS 7 (FARTUSHNIY)
1 57194U 23091AE  26141.28656108  .00006542  00000+0  26418-3 0  9991
2 57194  97.5074 204.0400 0011477 193.7275 166.3653 15.25057562160177
SITRO-AIS 10 (BURDAEV)  
1 57199U 23091AK  26141.24961310  .00013808  00000+0  37745-3 0  9994
2 57199  97.5086 211.1698 0007762 159.2191 200.9371 15.37472173160623
SITRO-AIS 9 (SHCHUKIN)  
1 57201U 23091AM  26141.26776092  .00013759  00000+0  38167-3 0  9995
2 57201  97.5084 210.9388 0007956 159.5263 200.6302 15.37015380160619
SITRO-AIS 12 (SMIRENNIY)
1 57204U 23091AQ  26141.26341819  .00013987  00000+0  38441-3 0  9991
2 57204  97.5096 211.3848 0007728 154.2337 205.9294 15.37301905160633
SITRO-AIS 11 (SHEFFER)  
1 57208U 23091AU  26141.28404891  .00013706  00000+0  37197-3 0  9993
2 57208  97.5095 211.6360 0007642 154.0348 206.1282 15.37699056160652
SITRO-AIS 25            
1 59066U 24039R   26141.30707539  .00002866  00000+0  22366-3 0  9995
2 59066  95.3915 216.6233 0147122  62.5763 299.0339 14.93313915120714
SITRO-AIS 26            
1 59067U 24039S   26141.30481644  .00002834  00000+0  22213-3 0  9998
2 59067  95.3916 216.5249 0147444  63.1105 298.5102 14.93114962120708
SITRO-AIS 27            
1 59068U 24039T   26141.28255304  .00003432  00000+0  26623-3 0  9992
2 59068  95.3915 216.7690 0146437  61.9052 299.6888 14.93525584120729
SITRO-AIS 28            
1 59071U 24039U   26141.26060824  .00003185  00000+0  24717-3 0  9992
2 59071  95.3915 216.7997 0146228  61.7912 299.7992 14.93560312120729
GRBBETA                 
1 60237U 24128C   26140.94061724  .00003036  00000+0  21533-3 0  9999
2 60237  61.9903 311.8442 0044395 129.0524 231.4532 15.06387472102162
OOV-CUBE (TUBSAT-30)    
1 60240U 24128F   26141.03934605  .00001622  00000+0  13410-3 0  9995
2 60240  61.9943 320.2264 0048056 127.8545 232.6909 15.02616790102034
ROBUSTA-3A (MEDITERRAN*)
1 60243U 24128J   26140.87837275  .00005917  00000+0  35523-3 0  9994
2 60243  61.9870 304.7859 0045248 122.7731 237.7736 15.11195263102293
LASARSAT                
1 62391U 24247Q   26140.82849373  .00022182  00000+0  47396-3 0  9993
2 62391  44.9760  55.7382 0005860 176.3157 183.7776 15.44503182 79088
CROCUBE                 
1 62394U 24247T   26141.11596255  .00023976  00000+0  48363-3 0  9994
2 62394  44.9732  51.8723 0005581 180.8555 179.2327 15.46151390 79150
FORESAIL-1 PRIME        
1 66778U 25276DS  26141.17782238  .00003104  00000+0  15412-3 0  9991
2 66778  97.4202 214.9476 0002583 162.6215 197.5108 15.18419941 26309
KNACKSAT-2              
1 67683U 98067XZ  26141.03792952  .00031564  00000+0  42652-3 0  9991
2 67683  51.6301  70.7726 0012161  99.9810 260.2555 15.57383266 16046
